ONEWEB-0703             
1 56724U 23068Q   25250.24890818  .00000155  00000+0  37756-3 0  9998
2 56724  87.9039 315.6723 0001750  62.6644 297.4664 13.15549613112055
ONEWEB-0721             
1 56725U 23068R   25250.24776962  .00000084  00000+0  16713-3 0  9993
2 56725  86.6874 175.7103 0001909  74.8156 285.3189 13.22443899120543
ONEWEB-0015             
1 61594U 24188A   25250.24843803 -.00000447  00000+0 -12983-2 0  9995
2 61594  87.8779  77.4745 0002334  85.5479 274.5916 13.11418019 47371
ONEWEB-0687             
1 61595U 24188B   25250.21667000  .00000045  00000+0  81674-4 0  9993
2 61595  87.9029  62.2020 0002237 101.8924 258.2459 13.17649799 48636
ONEWEB-0688             
1 61596U 24188C   25250.24535625  .00000089  00000+0  19525-3 0  9997
2 61596  87.9028  62.1961 0003017  85.6780 274.4697 13.17650152 48634
ONEWEB-0689             
1 61597U 24188D   25250.05346452  .00000564  00000+0  15544-2 0  9999
2 61597  87.8742  77.4696 0001817  98.6788 261.4546 13.11416840 47343
ONEWEB-0690             
1 61598U 24188E   25250.21623020  .00000271  00000+0  72834-3 0  9998
2 61598  87.8790  77.4155 0001468  63.0982 297.0296 13.11415048 47549
ONEWEB-0691             
1 61599U 24188F   25250.21114769  .00000478  00000+0  13116-2 0  9990
2 61599  87.8703  77.3773 0002091  83.7577 276.3789 13.11416417 47392
ONEWEB-0692             
1 61600U 24188G   25250.23150594 -.00000096  00000+0 -30797-3 0  9994
2 61600  87.8768  77.4779 0001154 121.7250 238.3991 13.11415024 47388
ONEWEB-0693             
1 61601U 24188H   25250.18122765  .00000036  00000+0  59551-4 0  9990
2 61601  87.9032  62.2273 0001828  62.8614 297.2704 13.17647679 48614
ONEWEB-0695             
1 61602U 24188J   25250.05515022  .00000595  00000+0  16419-2 0  9993
2 61602  87.8770  77.4999 0001645 107.9426 252.1882 13.11415264 47359
ONEWEB-0697             
1 61603U 24188K   25250.08736280 -.00000525  00000+0 -15177-2 0  9993
2 61603  87.8768  77.4848 0001112 114.3509 245.7735 13.11416534 47348
ONEWEB-0698             
1 61604U 24188L   25250.21792507  .00000335  00000+0  90859-3 0  9991
2 61604  87.8768  77.4729 0000632  72.4924 287.6273 13.11415534 47383
ONEWEB-0699             
1 61605U 24188M   25250.08191573  .00000517  00000+0  14435-2 0  9990
2 61605  87.8754  92.7137 0001119  95.1411 264.9844 13.10375370 46233
ONEWEB-0700             
1 61606U 24188N   25250.08357295 -.00000984  00000+0 -28560-2 0  9990
2 61606  87.8736  92.5994 0000995 113.5414 246.5818 13.10382707 46220
ONEWEB-0701             
1 61607U 24188P   25250.25288392  .00000643  00000+0  18043-2 0  9996
2 61607  87.8739  92.6851 0001023 109.5484 250.5754 13.10370622 46252
ONEWEB-0702             
1 61608U 24188Q   25250.26369521  .00000187  00000+0  49292-3 0  9996
2 61608  87.8710  77.3955 0001344 123.3019 236.8238 13.11421933 47406
