[{"OBJECT_NAME":"ONEWEB-0703","OBJECT_ID":"2023-068Q","EPOCH":"2025-09-07T05:58:25.666752","MEAN_MOTION":13.15549613,"ECCENTRICITY":0.00017504,"INCLINATION":87.9039,"RA_OF_ASC_NODE":315.6723,"ARG_OF_PERICENTER":62.6644,"MEAN_ANOMALY":297.4664,"EPHEMERIS_TYPE":0,"CLASSIFICATION_TYPE":"U","NORAD_CAT_ID":56724,"ELEMENT_SET_NO":999,"REV_AT_EPOCH":11205,"BSTAR":0.00037755644,"MEAN_MOTION_DOT":1.55e-6,"MEAN_MOTION_DDOT":0},{"OBJECT_NAME":"ONEWEB-0721","OBJECT_ID":"2023-068R","EPOCH":"2025-09-07T05:56:47.295168","MEAN_MOTION":13.22443899,"ECCENTRICITY":0.00019091,"INCLINATION":86.6874,"RA_OF_ASC_NODE":175.7103,"ARG_OF_PERICENTER":74.8156,"MEAN_ANOMALY":285.3189,"EPHEMERIS_TYPE":0,"CLASSIFICATION_TYPE":"U","NORAD_CAT_ID":56725,"ELEMENT_SET_NO":999,"REV_AT_EPOCH":12054,"BSTAR":0.00016712688,"MEAN_MOTION_DOT":8.4e-7,"MEAN_MOTION_DDOT":0},{"OBJECT_NAME":"ONEWEB-0015","OBJECT_ID":"2024-188A","EPOCH":"2025-09-07T05:57:45.045792","MEAN_MOTION":13.11418019,"ECCENTRICITY":0.0002334,"INCLINATION":87.8779,"RA_OF_ASC_NODE":77.4745,"ARG_OF_PERICENTER":85.5479,"MEAN_ANOMALY":274.5916,"EPHEMERIS_TYPE":0,"CLASSIFICATION_TYPE":"U","NORAD_CAT_ID":61594,"ELEMENT_SET_NO":999,"REV_AT_EPOCH":4737,"BSTAR":-0.0012983447,"MEAN_MOTION_DOT":-4.47e-6,"MEAN_MOTION_DDOT":0},{"OBJECT_NAME":"ONEWEB-0687","OBJECT_ID":"2024-188B","EPOCH":"2025-09-07T05:12:00.288000","MEAN_MOTION":13.17649799,"ECCENTRICITY":0.00022373,"INCLINATION":87.9029,"RA_OF_ASC_NODE":62.202,"ARG_OF_PERICENTER":101.8924,"MEAN_ANOMALY":258.2459,"EPHEMERIS_TYPE":0,"CLASSIFICATION_TYPE":"U","NORAD_CAT_ID":61595,"ELEMENT_SET_NO":999,"REV_AT_EPOCH":4863,"BSTAR":8.1673753e-5,"MEAN_MOTION_DOT":4.5e-7,"MEAN_MOTION_DDOT":0},{"OBJECT_NAME":"ONEWEB-0688","OBJECT_ID":"2024-188C","EPOCH":"2025-09-07T05:53:18.780000","MEAN_MOTION":13.17650152,"ECCENTRICITY":0.00030178,"INCLINATION":87.9028,"RA_OF_ASC_NODE":62.1961,"ARG_OF_PERICENTER":85.678,"MEAN_ANOMALY":274.4697,"EPHEMERIS_TYPE":0,"CLASSIFICATION_TYPE":"U","NORAD_CAT_ID":61596,"ELEMENT_SET_NO":999,"REV_AT_EPOCH":4863,"BSTAR":0.00019524557,"MEAN_MOTION_DOT":8.9e-7,"MEAN_MOTION_DDOT":0},{"OBJECT_NAME":"ONEWEB-0689","OBJECT_ID":"2024-188D","EPOCH":"2025-09-07T01:16:59.334528","MEAN_MOTION":13.1141684,"ECCENTRICITY":0.00018174,"INCLINATION":87.8742,"RA_OF_ASC_NODE":77.4696,"ARG_OF_PERICENTER":98.6788,"MEAN_ANOMALY":261.4546,"EPHEMERIS_TYPE":0,"CLASSIFICATION_TYPE":"U","NORAD_CAT_ID":61597,"ELEMENT_SET_NO":999,"REV_AT_EPOCH":4734,"BSTAR":0.0015544435,"MEAN_MOTION_DOT":5.64e-6,"MEAN_MOTION_DDOT":0},{"OBJECT_NAME":"ONEWEB-0690","OBJECT_ID":"2024-188E","EPOCH":"2025-09-07T05:11:22.289280","MEAN_MOTION":13.11415048,"ECCENTRICITY":0.00014682,"INCLINATION":87.879,"RA_OF_ASC_NODE":77.4155,"ARG_OF_PERICENTER":63.0982,"MEAN_ANOMALY":297.0296,"EPHEMERIS_TYPE":0,"CLASSIFICATION_TYPE":"U","NORAD_CAT_ID":61598,"ELEMENT_SET_NO":999,"REV_AT_EPOCH":4754,"BSTAR":0.00072834224,"MEAN_MOTION_DOT":2.71e-6,"MEAN_MOTION_DDOT":0},{"OBJECT_NAME":"ONEWEB-0691","OBJECT_ID":"2024-188F","EPOCH":"2025-09-07T05:04:03.160416","MEAN_MOTION":13.11416417,"ECCENTRICITY":0.00020914,"INCLINATION":87.8703,"RA_OF_ASC_NODE":77.3773,"ARG_OF_PERICENTER":83.7577,"MEAN_ANOMALY":276.3789,"EPHEMERIS_TYPE":0,"CLASSIFICATION_TYPE":"U","NORAD_CAT_ID":61599,"ELEMENT_SET_NO":999,"REV_AT_EPOCH":4739,"BSTAR":0.0013115691,"MEAN_MOTION_DOT":4.78e-6,"MEAN_MOTION_DDOT":0},{"OBJECT_NAME":"ONEWEB-0692","OBJECT_ID":"2024-188G","EPOCH":"2025-09-07T05:33:22.113216","MEAN_MOTION":13.11415024,"ECCENTRICITY":0.00011545,"INCLINATION":87.8768,"RA_OF_ASC_NODE":77.4779,"ARG_OF_PERICENTER":121.725,"MEAN_ANOMALY":238.3991,"EPHEMERIS_TYPE":0,"CLASSIFICATION_TYPE":"U","NORAD_CAT_ID":61600,"ELEMENT_SET_NO":999,"REV_AT_EPOCH":4738,"BSTAR":-0.00030797159,"MEAN_MOTION_DOT":-9.6e-7,"MEAN_MOTION_DDOT":0},{"OBJECT_NAME":"ONEWEB-0693","OBJECT_ID":"2024-188H","EPOCH":"2025-09-07T04:20:58.068960","MEAN_MOTION":13.17647679,"ECCENTRICITY":0.00018285,"INCLINATION":87.9032,"RA_OF_ASC_NODE":62.2273,"ARG_OF_PERICENTER":62.8614,"MEAN_ANOMALY":297.2704,"EPHEMERIS_TYPE":0,"CLASSIFICATION_TYPE":"U","NORAD_CAT_ID":61601,"ELEMENT_SET_NO":999,"REV_AT_EPOCH":4861,"BSTAR":5.9550549e-5,"MEAN_MOTION_DOT":3.6e-7,"MEAN_MOTION_DDOT":0},{"OBJECT_NAME":"ONEWEB-0695","OBJECT_ID":"2024-188J","EPOCH":"2025-09-07T01:19:24.979008","MEAN_MOTION":13.11415264,"ECCENTRICITY":0.00016453,"INCLINATION":87.877,"RA_OF_ASC_NODE":77.4999,"ARG_OF_PERICENTER":107.9426,"MEAN_ANOMALY":252.1882,"EPHEMERIS_TYPE":0,"CLASSIFICATION_TYPE":"U","NORAD_CAT_ID":61602,"ELEMENT_SET_NO":999,"REV_AT_EPOCH":4735,"BSTAR":0.0016419354,"MEAN_MOTION_DOT":5.95e-6,"MEAN_MOTION_DDOT":0},{"OBJECT_NAME":"ONEWEB-0697","OBJECT_ID":"2024-188K","EPOCH":"2025-09-07T02:05:48.145920","MEAN_MOTION":13.11416534,"ECCENTRICITY":0.00011127,"INCLINATION":87.8768,"RA_OF_ASC_NODE":77.4848,"ARG_OF_PERICENTER":114.3509,"MEAN_ANOMALY":245.7735,"EPHEMERIS_TYPE":0,"CLASSIFICATION_TYPE":"U","NORAD_CAT_ID":61603,"ELEMENT_SET_NO":999,"REV_AT_EPOCH":4734,"BSTAR":-0.0015177485,"MEAN_MOTION_DOT":-5.25e-6,"MEAN_MOTION_DDOT":0},{"OBJECT_NAME":"ONEWEB-0698","OBJECT_ID":"2024-188L","EPOCH":"2025-09-07T05:13:48.726048","MEAN_MOTION":13.11415534,"ECCENTRICITY":6.324e-5,"INCLINATION":87.8768,"RA_OF_ASC_NODE":77.4729,"ARG_OF_PERICENTER":72.4924,"MEAN_ANOMALY":287.6273,"EPHEMERIS_TYPE":0,"CLASSIFICATION_TYPE":"U","NORAD_CAT_ID":61604,"ELEMENT_SET_NO":999,"REV_AT_EPOCH":4738,"BSTAR":0.00090859322,"MEAN_MOTION_DOT":3.35e-6,"MEAN_MOTION_DDOT":0},{"OBJECT_NAME":"ONEWEB-0699","OBJECT_ID":"2024-188M","EPOCH":"2025-09-07T01:57:57.519072","MEAN_MOTION":13.1037537,"ECCENTRICITY":0.00011199,"INCLINATION":87.8754,"RA_OF_ASC_NODE":92.7137,"ARG_OF_PERICENTER":95.1411,"MEAN_ANOMALY":264.9844,"EPHEMERIS_TYPE":0,"CLASSIFICATION_TYPE":"U","NORAD_CAT_ID":61605,"ELEMENT_SET_NO":999,"REV_AT_EPOCH":4623,"BSTAR":0.0014434939,"MEAN_MOTION_DOT":5.17e-6,"MEAN_MOTION_DDOT":0},{"OBJECT_NAME":"ONEWEB-0700","OBJECT_ID":"2024-188N","EPOCH":"2025-09-07T02:00:20.702880","MEAN_MOTION":13.10382707,"ECCENTRICITY":9.954e-5,"INCLINATION":87.8736,"RA_OF_ASC_NODE":92.5994,"ARG_OF_PERICENTER":113.5414,"MEAN_ANOMALY":246.5818,"EPHEMERIS_TYPE":0,"CLASSIFICATION_TYPE":"U","NORAD_CAT_ID":61606,"ELEMENT_SET_NO":999,"REV_AT_EPOCH":4622,"BSTAR":-0.0028559776,"MEAN_MOTION_DOT":-9.84e-6,"MEAN_MOTION_DDOT":0},{"OBJECT_NAME":"ONEWEB-0701","OBJECT_ID":"2024-188P","EPOCH":"2025-09-07T06:04:09.170688","MEAN_MOTION":13.10370622,"ECCENTRICITY":0.00010239,"INCLINATION":87.8739,"RA_OF_ASC_NODE":92.6851,"ARG_OF_PERICENTER":109.5484,"MEAN_ANOMALY":250.5754,"EPHEMERIS_TYPE":0,"CLASSIFICATION_TYPE":"U","NORAD_CAT_ID":61607,"ELEMENT_SET_NO":999,"REV_AT_EPOCH":4625,"BSTAR":0.0018043439,"MEAN_MOTION_DOT":6.43e-6,"MEAN_MOTION_DDOT":0},{"OBJECT_NAME":"ONEWEB-0702","OBJECT_ID":"2024-188Q","EPOCH":"2025-09-07T06:19:43.266144","MEAN_MOTION":13.11421933,"ECCENTRICITY":0.00013447,"INCLINATION":87.871,"RA_OF_ASC_NODE":77.3955,"ARG_OF_PERICENTER":123.3019,"MEAN_ANOMALY":236.8238,"EPHEMERIS_TYPE":0,"CLASSIFICATION_TYPE":"U","NORAD_CAT_ID":61608,"ELEMENT_SET_NO":999,"REV_AT_EPOCH":4740,"BSTAR":0.00049291858,"MEAN_MOTION_DOT":1.87e-6,"MEAN_MOTION_DDOT":0}]
